emailAddress,link,name,phone,companyName,streetAddress
,https://www.yellowpages.com/los-angeles-ca/mip/med-life-ambulance-service-12960735,,(818) 242-1785,med-life-ambulance-servic,4304 Alger St
,https://www.yellowpages.com/los-angeles-ca/mip/atlas-rescues-531009236,,(818) 452-2424,atlas-rescues,6290 Hollywood Blvd
,https://www.yellowpages.com/los-angeles-ca/mip/westmed-ambulance-526667983,,(323) 745-0540,westmed-ambulance,750 N Highland Ave
,https://www.yellowpages.com/los-angeles-ca/mip/hatzoloh-of-la-532805925,,,hatzoloh-of-la,7011 Clinton St
,https://www.yellowpages.com/los-angeles-ca/mip/shoreline-ambulance-470759046,,(323) 937-4308,shoreline-ambulance,5967 W 3rd St
,https://www.yellowpages.com/los-angeles-ca/mip/metro-valley-ambulance-478382278,,(818) 242-2872,metro-valley-ambulance,4561 Colorado Blvd
,https://www.yellowpages.com/los-angeles-ca/mip/medreach-ambulance-service-541023905,,(323) 934-5671,medreach-ambulance-service,2370 S Curson Ave
,https://www.yellowpages.com/los-angeles-ca/mip/dependable-care-transportation-19563028,,(323) 556-8600,dependable-care-transportatio,639 N Fairfax Ave
,https://www.yellowpages.com/los-angeles-ca/mip/mc-cormick-ambulance-463578743,,(323) 291-6548,mc-cormick-ambulance,4745 W Slauson Ave
,https://www.yellowpages.com/los-angeles-ca/mip/care-america-transportation-inc-472636974,,(323) 874-0024,care-america-transportation-inc,_
,https://www.yellowpages.com/los-angeles-ca/mip/aegis-ambulance-service-5176724,,(213) 482-0809,aegis-ambulance-servi,_
,https://www.yellowpages.com/los-angeles-ca/mip/good-shepherd-ambulance-22372283,,(213) 623-3222,good-shepherd-ambulanc,_
,https://www.yellowpages.com/los-angeles-ca/mip/care-ambulance-service-462562065,,(323) 469-1234,care-ambulance-service,_
,https://www.yellowpages.com/los-angeles-ca/mip/medi-star-transport-6057085,,(818) 955-9900,medi-star-transpo,4156 Verdugo Rd
,https://www.yellowpages.com/los-angeles-ca/mip/g-m-d-transportation-509510134,,(323) 874-4085,g-m-d-transportation,7441 W Sunset Blvd Ste 201
,https://www.yellowpages.com/los-angeles-ca/mip/elite-ambulance-inc-482678304,,(323) 874-4100,elite-ambulance-inc,2065 S La Cienega Blvd
,https://www.yellowpages.com/los-angeles-ca/mip/air-ambulance-6387978,,(323) 221-7510,air-ambulan,Los Angeles Intl Airport
,https://www.yellowpages.com/nationwide/mip/royalty-ambulance-473121617,,(818) 550-5833,royalty-ambulance,_
,https://www.yellowpages.com/nationwide/mip/good-shepherd-ambulance-l-l-c-475215970,,(626) 287-5200,good-shepherd-ambulance-l-l-c,_
,https://www.yellowpages.com/glendale-ca/mip/prn-ambulance-11123563,,(818) 844-2775,prn-ambulanc,532 Riverdale Dr
,https://www.yellowpages.com/huntington-park-ca/mip/care-ambulance-12764896,,(323) 582-9277,care-ambulanc,3079 E Gage Ave
,https://www.yellowpages.com/west-hollywood-ca/mip/dependable-care-ambulance-14372437,,(323) 851-3791,dependable-care-ambulanc,7533 Lexington Ave
,https://www.yellowpages.com/glendale-ca/mip/e-z-trans-inc-545458086,,(818) 484-7933,e-z-trans-inc,1626 S Central Ave
,https://www.yellowpages.com/alhambra-ca/mip/s-outhern-ca-ambulance-16461765,,(626) 457-5742,s-outhern-ca-ambulanc,2931 W Valley Blvd
,https://www.yellowpages.com/glendale-ca/mip/royalty-ambulance-svc-inc-531240954,,(818) 500-7566,royalty-ambulance-svc-inc,815 S Central Ave Ste 9
,https://www.yellowpages.com/glendale-ca/mip/trans-aid-non-emergency-med-22560306,,(818) 242-1155,trans-aid-non-emergency-me,815 S Central Ave
,https://www.yellowpages.com/glendale-ca/mip/e-z-trans-463376267,,(818) 567-2300,e-z-trans,124 S Orange St
,https://www.yellowpages.com/montebello-ca/mip/floral-extreme-481616774,,(323) 725-0026,floral-extreme,3405 W Beverly Blvd
,https://www.yellowpages.com/glendale-ca/mip/trans-aid-ambulance-transportation-14502454,,(323) 204-6921,trans-aid-ambulance-transportatio,1300 Gardena Ave
,https://www.yellowpages.com/commerce-ca/mip/care-ambulance-7262715,,(323) 724-9930,care-ambulan,2939 Vail Ave